{
  "type": "FeatureCollection",
  "features": [
    {
      "type": "Feature",
      "properties": {
        "norad_id": 37238,
        "name": "INTELSAT 17 (IS-17)",
        "group": "intelsat",
        "lat": -0.027865802713376662,
        "lon": -133.4970458140348,
        "alt_km": 35775.77127900166,
        "timestamp": "2025-12-17T04:57:44.067632+00:00",
        "meta_object_name": "INTELSAT 17 (IS-17)",
        "meta_object_id": "2010-065B",
        "meta_epoch": "2025-12-16T19:11:20.375232",
        "meta_mean_motion": 1.00275946,
        "meta_eccentricity": 0.00026538,
        "meta_inclination": 0.0095,
        "meta_ra_of_asc_node": 298.841,
        "meta_arg_of_pericenter": 323.3713,
        "meta_mean_anomaly": 177.3143,
        "meta_ephemeris_type": 0,
        "meta_classification_type": "U",
        "meta_norad_cat_id": 37238,
        "meta_element_set_no": 999,
        "meta_rev_at_epoch": 5141,
        "meta_bstar": 0,
        "meta_mean_motion_dot": 2.2e-07,
        "meta_mean_motion_ddot": 0,
        "tle_line1": "1 37238U 10065B   25350.79954138  .00000022  00000+0  00000+0 0  9998",
        "tle_line2": "2 37238   0.0095 298.8410 0002653 323.3713 177.3143  1.00275946 51410"
      },
      "geometry": {
        "type": "Point",
        "coordinates": [
          -133.4970458140348,
          -0.027865802713376662
        ]
      }
    },
    {
      "type": "Feature",
      "properties": {
        "norad_id": 37392,
        "name": "INTELSAT 28 (IS-28)",
        "group": "intelsat",
        "lat": 0.9391093103132564,
        "lon": 128.7958869942142,
        "alt_km": 35798.36560091913,
        "timestamp": "2025-12-17T04:57:44.067643+00:00",
        "meta_object_name": "INTELSAT 28 (IS-28)",
        "meta_object_id": "2011-016A",
        "meta_epoch": "2025-12-16T16:37:49.757664",
        "meta_mean_motion": 1.00270952,
        "meta_eccentricity": 0.00037105,
        "meta_inclination": 1.3345,
        "meta_ra_of_asc_node": 85.0101,
        "meta_arg_of_pericenter": 184.3932,
        "meta_mean_anomaly": 33.9565,
        "meta_ephemeris_type": 0,
        "meta_classification_type": "U",
        "meta_norad_cat_id": 37392,
        "meta_element_set_no": 999,
        "meta_rev_at_epoch": 5145,
        "meta_bstar": 0,
        "meta_mean_motion_dot": -2.02e-06,
        "meta_mean_motion_ddot": 0,
        "tle_line1": "1 37392U 11016A   25350.69293701 -.00000202  00000+0  00000+0 0  9998",
        "tle_line2": "2 37392   1.3345  85.0101 0003710 184.3932  33.9565  1.00270952 51450"
      },
      "geometry": {
        "type": "Point",
        "coordinates": [
          128.7958869942142,
          0.9391093103132564
        ]
      }
    },
    {
      "type": "Feature",
      "properties": {
        "norad_id": 37834,
        "name": "INTELSAT 18 (IS-18)",
        "group": "intelsat",
        "lat": 0.01216051166884934,
        "lon": -19.477634334725522,
        "alt_km": 35782.3359572605,
        "timestamp": "2025-12-17T04:57:44.067653+00:00",
        "meta_object_name": "INTELSAT 18 (IS-18)",
        "meta_object_id": "2011-056A",
        "meta_epoch": "2025-12-16T19:20:56.640768",
        "meta_mean_motion": 1.00272259,
        "meta_eccentricity": 0.00017557,
        "meta_inclination": 0.0138,
        "meta_ra_of_asc_node": 303.0338,
        "meta_arg_of_pericenter": 336.4862,
        "meta_mean_anomaly": 276.4036,
        "meta_ephemeris_type": 0,
        "meta_classification_type": "U",
        "meta_norad_cat_id": 37834,
        "meta_element_set_no": 999,
        "meta_rev_at_epoch": 5198,
        "meta_bstar": 0,
        "meta_mean_motion_dot": 7.7e-07,
        "meta_mean_motion_ddot": 0,
        "tle_line1": "1 37834U 11056A   25350.80621112  .00000077  00000+0  00000+0 0  9996",
        "tle_line2": "2 37834   0.0138 303.0338 0001755 336.4862 276.4036  1.00272259 51988"
      },
      "geometry": {
        "type": "Point",
        "coordinates": [
          -19.477634334725522,
          0.01216051166884934
        ]
      }
    },
    {
      "type": "Feature",
      "properties": {
        "norad_id": 38098,
        "name": "INTELSAT 22 (IS-22)",
        "group": "intelsat",
        "lat": -0.01895452048387241,
        "lon": -127.4123644223045,
        "alt_km": 35781.79626476086,
        "timestamp": "2025-12-17T04:57:44.067664+00:00",
        "meta_object_name": "INTELSAT 22 (IS-22)",
        "meta_object_id": "2012-011A",
        "meta_epoch": "2025-12-16T18:50:07.092384",
        "meta_mean_motion": 1.00270584,
        "meta_eccentricity": 0.00018733,
        "meta_inclination": 0.0405,
        "meta_ra_of_asc_node": 53.3202,
        "meta_arg_of_pericenter": 233.8092,
        "meta_mean_anomaly": 153.1695,
        "meta_ephemeris_type": 0,
        "meta_classification_type": "U",
        "meta_norad_cat_id": 38098,
        "meta_element_set_no": 999,
        "meta_rev_at_epoch": 535,
        "meta_bstar": 0,
        "meta_mean_motion_dot": 0,
        "meta_mean_motion_ddot": 0,
        "tle_line1": "1 38098U 12011A   25350.78480431  .00000000  00000+0  00000+0 0  9991",
        "tle_line2": "2 38098   0.0405  53.3202 0001873 233.8092 153.1695  1.00270584  5350"
      },
      "geometry": {
        "type": "Point",
        "coordinates": [
          -127.4123644223045,
          -0.01895452048387241
        ]
      }
    },
    {
      "type": "Feature",
      "properties": {
        "norad_id": 38356,
        "name": "INTELSAT 19 (IS-19)",
        "group": "intelsat",
        "lat": -0.0077589649496749135,
        "lon": -33.448568947251474,
        "alt_km": 35777.63913097844,
        "timestamp": "2025-12-17T04:57:44.067675+00:00",
        "meta_object_name": "INTELSAT 19 (IS-19)",
        "meta_object_id": "2012-030A",
        "meta_epoch": "2025-12-16T15:51:30.465792",
        "meta_mean_motion": 1.00272031,
        "meta_eccentricity": 0.00031919,
        "meta_inclination": 0.0082,
        "meta_ra_of_asc_node": 339.5774,
        "meta_arg_of_pericenter": 295.3493,
        "meta_mean_anomaly": 214.5126,
        "meta_ephemeris_type": 0,
        "meta_classification_type": "U",
        "meta_norad_cat_id": 38356,
        "meta_element_set_no": 999,
        "meta_rev_at_epoch": 4862,
        "meta_bstar": 0,
        "meta_mean_motion_dot": -3.2e-07,
        "meta_mean_motion_ddot": 0,
        "tle_line1": "1 38356U 12030A   25350.66076928 -.00000032  00000+0  00000+0 0  9994",
        "tle_line2": "2 38356   0.0082 339.5774 0003191 295.3493 214.5126  1.00272031 48621"
      },
      "geometry": {
        "type": "Point",
        "coordinates": [
          -33.448568947251474,
          -0.0077589649496749135
        ]
      }
    },
    {
      "type": "Feature",
      "properties": {
        "norad_id": 38740,
        "name": "INTELSAT 20 (IS-20)",
        "group": "intelsat",
        "lat": -0.008437603368369035,
        "lon": -130.96029775312417,
        "alt_km": 35774.301012164484,
        "timestamp": "2025-12-17T04:57:44.067685+00:00",
        "meta_object_name": "INTELSAT 20 (IS-20)",
        "meta_object_id": "2012-043A",
        "meta_epoch": "2025-12-16T18:49:07.186944",
        "meta_mean_motion": 1.00276533,
        "meta_eccentricity": 0.00034136,
        "meta_inclination": 0.0049,
        "meta_ra_of_asc_node": 57.598,
        "meta_arg_of_pericenter": 128.0244,
        "meta_mean_anomaly": 250.8251,
        "meta_ephemeris_type": 0,
        "meta_classification_type": "U",
        "meta_norad_cat_id": 38740,
        "meta_element_set_no": 999,
        "meta_rev_at_epoch": 4891,
        "meta_bstar": 0,
        "meta_mean_motion_dot": -1e-08,
        "meta_mean_motion_ddot": 0,
        "tle_line1": "1 38740U 12043A   25350.78411096 -.00000001  00000+0  00000+0 0  9993",
        "tle_line2": "2 38740   0.0049  57.5980 0003413 128.0244 250.8251  1.00276533 48915"
      },
      "geometry": {
        "type": "Point",
        "coordinates": [
          -130.96029775312417,
          -0.008437603368369035
        ]
      }
    },
    {
      "type": "Feature",
      "properties": {
        "norad_id": 38749,
        "name": "INTELSAT 21 (IS-21)",
        "group": "intelsat",
        "lat": 0.03092508420514674,
        "lon": 102.52333014111363,
        "alt_km": 35790.66516357825,
        "timestamp": "2025-12-17T04:57:44.067696+00:00",
        "meta_object_name": "INTELSAT 21 (IS-21)",
        "meta_object_id": "2012-045A",
        "meta_epoch": "2025-12-16T09:39:21.104640",
        "meta_mean_motion": 1.00275644,
        "meta_eccentricity": 0.00014741,
        "meta_inclination": 0.0368,
        "meta_ra_of_asc_node": 79.4307,
        "meta_arg_of_pericenter": 176.2803,
        "meta_mean_anomaly": 276.4325,
        "meta_ephemeris_type": 0,
        "meta_classification_type": "U",
        "meta_norad_cat_id": 38749,
        "meta_element_set_no": 999,
        "meta_rev_at_epoch": 4869,
        "meta_bstar": 0,
        "meta_mean_motion_dot": -2.61e-06,
        "meta_mean_motion_ddot": 0,
        "tle_line1": "1 38749U 12045A   25350.40232760 -.00000261  00000+0  00000+0 0  9990",
        "tle_line2": "2 38749   0.0368  79.4307 0001474 176.2803 276.4325  1.00275644 48698"
      },
      "geometry": {
        "type": "Point",
        "coordinates": [
          102.52333014111363,
          0.03092508420514674
        ]
      }
    }
  ]
}